[{"OBJECT_NAME":"STARLINK-30081","OBJECT_ID":"2023-113W","EPOCH":"2026-03-09T22:00:01.999584","MEAN_MOTION":15.27475229,"ECCENTRICITY":0.00013446,"INCLINATION":43.0008,"RA_OF_ASC_NODE":14.4731,"ARG_OF_PERICENTER":280.0341,"MEAN_ANOMALY":81.2569,"EPHEMERIS_TYPE":0,"CLASSIFICATION_TYPE":"U","NORAD_CAT_ID":57515,"ELEMENT_SET_NO":999,"REV_AT_EPOCH":567,"BSTAR":0.001883085,"MEAN_MOTION_DOT":0.00051755,"MEAN_MOTION_DDOT":0},{"OBJECT_NAME":"AL MUNTHER","OBJECT_ID":"2025-052AG","EPOCH":"2026-03-09T15:29:23.207136","MEAN_MOTION":15.28381521,"ECCENTRICITY":0.0008027,"INCLINATION":97.4001,"RA_OF_ASC_NODE":323.9152,"ARG_OF_PERICENTER":130.7043,"MEAN_ANOMALY":229.4895,"EPHEMERIS_TYPE":0,"CLASSIFICATION_TYPE":"U","NORAD_CAT_ID":63240,"ELEMENT_SET_NO":999,"REV_AT_EPOCH":5479,"BSTAR":0.00065015,"MEAN_MOTION_DOT":0.00017933,"MEAN_MOTION_DDOT":0}]
